$$SOE
2460728.500000000, A.D. 2025-Feb-22 00:00:00.0000, 2.143883717486385E+08, 2.335586265360464E+08, -2.748733279687615E+07,
2460735.500000000, A.D. 2025-Mar-01 00:00:00.0000, 2.069299303151865E+08, 2.435831558233815E+08, -2.783420036315459E+07,
2460742.500000000, A.D. 2025-Mar-08 00:00:00.0000, 1.991672236890990E+08, 2.532497466291621E+08, -2.814014635315369E+07,
2460749.500000000, A.D. 2025-Mar-15 00:00:00.0000, 1.911186374364553E+08, 2.625530568294717E+08, -2.840570559131493E+07,
2460756.500000000, A.D. 2025-Mar-22 00:00:00.0000, 1.828021707380066E+08, 2.714885993089274E+08, -2.863145462250994E+07,
2460763.500000000, A.D. 2025-Mar-29 00:00:00.0000, 1.742354156883589E+08, 2.800526788082724E+08, -2.881800638346332E+07,
2460770.500000000, A.D. 2025-Apr-05 00:00:00.0000, 1.654355433505968E+08, 2.882423324832851E+08, -2.896600541355288E+07,
2460777.500000000, A.D. 2025-Apr-12 00:00:00.0000, 1.564192940322637E+08, 2.960552744081101E+08, -2.907612339860339E+07,
2460784.500000000, A.D. 2025-Apr-19 00:00:00.0000, 1.472029710351464E+08, 3.034898432149031E+08, -2.914905507971583E+07,
2460791.500000000, A.D. 2025-Apr-26 00:00:00.0000, 1.378024376388967E+08, 3.105449526903756E+08, -2.918551454497489E+07,
2460798.500000000, A.D. 2025-May-03 00:00:00.0000, 1.282331169669572E+08, 3.172200453307288E+08, -2.918623188859253E+07,
2460805.500000000, A.D. 2025-May-10 00:00:00.0000, 1.185099943427542E+08, 3.235150488130641E+08, -2.915195021490674E+07,
2460812.500000000, A.D. 2025-May-17 00:00:00.0000, 1.086476217947385E+08, 3.294303352660860E+08, -2.908342296967000E+07,
2460819.500000000, A.D. 2025-May-24 00:00:00.0000, 9.866012454595470E+07, 3.349666831904187E+08, -2.898141159530117E+07,
2460826.500000000, A.D. 2025-May-31 00:00:00.0000, 8.856120960528761E+07, 3.401252422316322E+08, -2.884668350033818E+07,
2460833.500000000, A.D. 2025-Jun-07 00:00:00.0000, 7.836417579603080E+07, 3.449075018939331E+08, -2.868001018679765E+07,
2460840.500000000, A.D. 2025-Jun-14 00:00:00.0000, 6.808192262617710E+07, 3.493152633968686E+08, -2.848216535200521E+07,
2460847.500000000, A.D. 2025-Jun-21 00:00:00.0000, 5.772695900623769E+07, 3.533506112690746E+08, -2.825392332232751E+07,
2460854.500000000, A.D. 2025-Jun-28 00:00:00.0000, 4.731141476196855E+07, 3.570158863225164E+08, -2.799605794415261E+07,
2460861.500000000, A.D. 2025-Jul-05 00:00:00.0000, 3.684705327522008E+07, 3.603136620374922E+08, -2.770934160088561E+07,
2460868.500000000, A.D. 2025-Jul-12 00:00:00.0000, 2.634528392849215E+07, 3.632467234231819E+08, -2.739454429612783E+07,
2460875.500000000, A.D. 2025-Jul-19 00:00:00.0000, 1.581717442653743E+07, 3.658180476549538E+08, -2.705243285235462E+07,
2460882.500000000, A.D. 2025-Jul-26 00:00:00.0000, 5.273463106154068E+06, 3.680307863140267E+08, -2.668377023537651E+07,
2460889.500000000, A.D. 2025-Aug-02 00:00:00.0000, -5.275428784094804E+06, 3.698882491385898E+08, -2.628931499638645E+07,
2460896.500000000, A.D. 2025-Aug-09 00:00:00.0000, -1.581938488136338E+07, 3.713938891648276E+08, -2.586982082355326E+07,
2460903.500000000, A.D. 2025-Aug-16 00:00:00.0000, -2.634858156532147E+07, 3.725512890936964E+08, -2.542603620499542E+07,
2460910.500000000, A.D. 2025-Aug-23 00:00:00.0000, -3.685347563059315E+07, 3.733641488052586E+08, -2.495870421919394E+07,
2460917.500000000, A.D. 2025-Aug-30 00:00:00.0000, -4.732479148575630E+07, 3.738362746469473E+08, -2.446856241629791E+07,
2460924.500000000, A.D. 2025-Sep-06 00:00:00.0000, -5.775350932655352E+07, 3.739715714151455E+08, -2.395634257131694E+07,
2460931.500000000, A.D. 2025-Sep-13 00:00:00.0000, -6.813085597279054E+07, 3.737740344645131E+08, -2.342277035123055E+07,
2460938.500000000, A.D. 2025-Sep-20 00:00:00.0000, -7.844829511520113E+07, 3.732477402159953E+08, -2.286856532181050E+07,
2460945.500000000, A.D. 2025-Sep-27 00:00:00.0000, -8.869751593420731E+07, 3.723968381053798E+08, -2.229444113053818E+07,
2460952.500000000, A.D. 2025-Oct-04 00:00:00.0000, -9.887042212062445E+07, 3.712255444500642E+08, -2.170110563167043E+07,
2460959.500000000, A.D. 2025-Oct-11 00:00:00.0000, -1.089591216825521E+08, 3.697381372339970E+08, -2.108926099175584E+07,
2460966.500000000, A.D. 2025-Oct-18 00:00:00.0000, -1.189559172615212E+08, 3.679389514872956E+08, -2.045960382067238E+07,
2460973.500000000, A.D. 2025-Oct-25 00:00:00.0000, -1.288532968196823E+08, 3.658323752270061E+08, -1.981282533730237E+07,
2460980.500000000, A.D. 2025-Nov-01 00:00:00.0000, -1.386439246564242E+08, 3.634228459314947E+08, -1.914961156944233E+07,
2460987.500000000, A.D. 2025-Nov-08 00:00:00.0000, -1.483206327163905E+08, 3.607148474755458E+08, -1.847064359092425E+07,
2460994.500000000, A.D. 2025-Nov-15 00:00:00.0000, -1.578764120372256E+08, 3.577129074285681E+08, -1.777659781171127E+07,
2461001.500000000, A.D. 2025-Nov-22 00:00:00.0000, -1.673044039306202E+08, 3.544215949001426E+08, -1.706814633762734E+07,
2461008.500000000, A.D. 2025-Nov-29 00:00:00.0000, -1.765978910467688E+08, 3.508455200363996E+08, -1.634595729112907E+07,
2461015.500000000, A.D. 2025-Dec-06 00:00:00.0000, -1.857502905957642E+08, 3.469893350054660E+08, -1.561069489427298E+07,
2461022.500000000, A.D. 2025-Dec-13 00:00:00.0000, -1.947551492837449E+08, 3.428577330759068E+08, -1.486301962760870E+07,
2461029.500000000, A.D. 2025-Dec-20 00:00:00.0000, -2.036061364646515E+08, 3.384554467829811E+08, -1.410358869959852E+07,
2461036.500000000, A.D. 2025-Dec-27 00:00:00.0000, -2.122970365804437E+08, 3.337872477551914E+08, -1.333305651558383E+07,
2461043.500000000, A.D. 2026-Jan-03 00:00:00.0000, -2.208217423438324E+08, 3.288579475718042E+08, -1.255207506240688E+07,
2461050.500000000, A.D. 2026-Jan-10 00:00:00.0000, -2.291742485466987E+08, 3.236723989572642E+08, -1.176129427323480E+07,
2461057.500000000, A.D. 2026-Jan-17 00:00:00.0000, -2.373486462554711E+08, 3.182354972068849E+08, -1.096136240035693E+07,
2461064.500000000, A.D. 2026-Jan-24 00:00:00.0000, -2.453391173097094E+08, 3.125521818543147E+08, -1.015292640034734E+07,
2461071.500000000, A.D. 2026-Jan-31 00:00:00.0000, -2.531399290949206E+08, 3.066274385623695E+08, -9.336632333548173E+06,
2461078.500000000, A.D. 2026-Feb-07 00:00:00.0000, -2.607454295234917E+08, 3.004663011696855E+08, -8.513125787503406E+06,
2461085.500000000, A.D. 2026-Feb-14 00:00:00.0000, -2.681500419677316E+08, 2.940738538687589E+08, -7.683052348256901E+06,
2461092.500000000, A.D. 2026-Feb-21 00:00:00.0000, -2.753482597567206E+08, 2.874552340849240E+08, -6.847058107524753E+06,
2461099.500000000, A.D. 2026-Feb-28 00:00:00.0000, -2.823346413240001E+08, 2.806156372053267E+08, -6.005790011903897E+06,
2461106.500000000, A.D. 2026-Mar-07 00:00:00.0000, -2.891038080680019E+08, 2.735603212083990E+08, -5.159896024929166E+06,
2461113.500000000, A.D. 2026-Mar-14 00:00:00.0000, -2.956504421480765E+08, 2.662946088617133E+08, -4.310025546880171E+06,
2461120.500000000, A.D. 2026-Mar-21 00:00:00.0000, -3.019692824324652E+08, 2.588238903821848E+08, -3.456830018141761E+06,
2461127.500000000, A.D. 2026-Mar-28 00:00:00.0000, -3.080551206133841E+08, 2.511536275874282E+08, -2.600963437680483E+06,
2461134.500000000, A.D. 2026-Apr-04 00:00:00.0000, -3.139027980977278E+08, 2.432893585765627E+08, -1.743082820205837E+06,
2461141.500000000, A.D. 2026-Apr-11 00:00:00.0000, -3.195072034029830E+08, 2.352367025828183E+08, -8.838486461263001E+05,
2461148.500000000, A.D. 2026-Apr-18 00:00:00.0000, -3.248632699044433E+08, 2.270013649929295E+08, -2.392531895907223E+04,
2461155.500000000, A.D. 2026-Apr-25 00:00:00.0000, -3.299659738955160E+08, 2.185891425505852E+08, 8.360183672301322E+05,
2461162.500000000, A.D. 2026-May-02 00:00:00.0000, -3.348103329400113E+08, 2.100059287180694E+08, 1.695308745496914E+06,
2461169.500000000, A.D. 2026-May-09 00:00:00.0000, -3.393914044030747E+08, 2.012577191348624E+08, 2.553266762326509E+06,
2461176.500000000, A.D. 2026-May-16 00:00:00.0000, -3.437042837952220E+08, 1.923506173176583E+08, 3.409207409622431E+06,
2461183.500000000, A.D. 2026-May-23 00:00:00.0000, -3.477441028906903E+08, 1.832908416307403E+08, 4.262439181634016E+06,
2461190.500000000, A.D. 2026-May-30 00:00:00.0000, -3.515060297132606E+08, 1.740847338527599E+08, 5.112263774003834E+06,
2461197.500000000, A.D. 2026-Jun-06 00:00:00.0000, -3.549852707233709E+08, 1.647387660735502E+08, 5.957975786940560E+06,
2461204.500000000, A.D. 2026-Jun-13 00:00:00.0000, -3.581770715550236E+08, 1.552595461245680E+08, 6.798862113413721E+06,
2461211.500000000, A.D. 2026-Jun-20 00:00:00.0000, -3.610767168227990E+08, 1.456538244678043E+08, 7.634201298304461E+06,
2461218.500000000, A.D. 2026-Jun-27 00:00:00.0000, -3.636795307295609E+08, 1.359285022051116E+08, 8.463262996693417E+06,
2461225.500000000, A.D. 2026-Jul-04 00:00:00.0000, -3.659808785113660E+08, 1.260906394418865E+08, 9.285307468241103E+06,
2461232.500000000, A.D. 2026-Jul-11 00:00:00.0000, -3.679761685002594E+08, 1.161474638831399E+08, 1.009958507443089E+07,
2461239.500000000, A.D. 2026-Jul-18 00:00:00.0000, -3.696608547468771E+08, 1.061063796953158E+08, 1.090533577351933E+07,
2461246.500000000, A.D. 2026-Jul-25 00:00:00.0000, -3.710304402154051E+08, 9.597497664154840E+07, 1.170178861272555E+07,
2461253.500000000, A.D. 2026-Aug-01 00:00:00.0000, -3.720804805434660E+08, 8.576103944488731E+07, 1.248816121115966E+07,
2461260.500000000, A.D. 2026-Aug-08 00:00:00.0000, -3.728065881969498E+08, 7.547255734427348E+07, 1.326365921302516E+07,
2461267.500000000, A.D. 2026-Aug-15 00:00:00.0000, -3.732044366538905E+08, 6.511773429223248E+07, 1.402747571237832E+07,
2461274.500000000, A.D. 2026-Aug-22 00:00:00.0000, -3.732697654321943E+08, 5.470500101128088E+07, 1.477879082195940E+07,
2461281.500000000, A.D. 2026-Aug-29 00:00:00.0000, -3.729983883112705E+08, 4.424302752877959E+07, 1.551677148712310E+07,
2461288.500000000, A.D. 2026-Sep-05 00:00:00.0000, -3.723862026824169E+08, 3.374073331360476E+07, 1.624057111870928E+07,
2461295.500000000, A.D. 2026-Sep-12 00:00:00.0000, -3.714291976416650E+08, 2.320729749982102E+07, 1.694932902845395E+07,
$$EOE